start=new Date('2022-12-03T00:00:00.000Z').valueOf();
sats=[{"OBJECT_ID":"2022-077AB","PERIAPSIS":"561.686","RA_OF_ASC_NODE":"155.3400","ARG_OF_PERICENTER":"53.5179","SITE":"AFWTR","INCLINATION":"97.6552","EPHEMERIS_TYPE":"0","PERIOD":"95.919","FILE":"3679245","COUNTRY_CODE":"US","TLE_LINE1":"1 53068U 22077AB  22336.46376743  .00002155  00000-0  17228-3 0  9992","TLE_LINE2":"2 53068  97.6552 155.3400 0001878  53.5179 306.6218 15.01267317 21899","REV_AT_EPOCH":"2189","MEAN_MOTION_DOT":"0.00002155","MEAN_ELEMENT_THEORY":"SGP4","CENTER_NAME":"EARTH","GP_ID":"219352923","EPOCH":"2022-12-02T11:07:49.505952","DECAY_DATE":null,"APOAPSIS":"564.293","LAUNCH_DATE":"2022-07-11","OBJECT_NAME":"STARLINK-4325","MEAN_MOTION_DDOT":"0.0000000000000","BSTAR":"0.00017228000000","CLASSIFICATION_TYPE":"U","REF_FRAME":"TEME","OBJECT_TYPE":"PAYLOAD","MEAN_MOTION":"15.01267317","ECCENTRICITY":"0.00018780","ELEMENT_SET_NO":"999","MEAN_ANOMALY":"306.6218","RCS_SIZE":"LARGE","NORAD_CAT_ID":"53068","TIME_SYSTEM":"UTC","SEMIMAJOR_AXIS":"6941.124"},{"BSTAR":"0.00021763000000","APOAPSIS":"564.412","LAUNCH_DATE":"2022-07-11","DECAY_DATE":null,"EPOCH":"2022-12-02T06:11:31.513632","GP_ID":"219354345","MEAN_MOTION_DDOT":"0.0000000000000","OBJECT_NAME":"STARLINK-4323","TIME_SYSTEM":"UTC","NORAD_CAT_ID":"53069","RCS_SIZE":"LARGE","MEAN_ANOMALY":"310.8834","SEMIMAJOR_AXIS":"6941.118","CLASSIFICATION_TYPE":"U","REF_FRAME":"TEME","ECCENTRICITY":"0.00020590","ELEMENT_SET_NO":"999","OBJECT_TYPE":"PAYLOAD","MEAN_MOTION":"15.01269459","INCLINATION":"97.6597","SITE":"AFWTR","PERIOD":"95.919","EPHEMERIS_TYPE":"0","RA_OF_ASC_NODE":"155.1498","OBJECT_ID":"2022-077AC","PERIAPSIS":"561.554","ARG_OF_PERICENTER":"49.2569","CENTER_NAME":"EARTH","COUNTRY_CODE":"US","FILE":"3679280","MEAN_ELEMENT_THEORY":"SGP4","REV_AT_EPOCH":"2244","TLE_LINE2":"2 53069  97.6597 155.1498 0002059  49.2569 310.8834 15.01269459 22443","MEAN_MOTION_DOT":"0.00002738","TLE_LINE1":"1 53069U 22077AC  22336.25800363  .00002738  00000-0  21763-3 0  9996"},{"CLASSIFICATION_TYPE":"U","REF_FRAME":"TEME","ECCENTRICITY":"0.00014790","ELEMENT_SET_NO":"999","MEAN_MOTION":"15.01260804","OBJECT_TYPE":"PAYLOAD","NORAD_CAT_ID":"53070","TIME_SYSTEM":"UTC","MEAN_ANOMALY":"299.3195","RCS_SIZE":"LARGE","SEMIMAJOR_AXIS":"6941.144","DECAY_DATE":null,"APOAPSIS":"564.036","LAUNCH_DATE":"2022-07-11","GP_ID":"219352182","EPOCH":"2022-12-02T06:19:32.120544","OBJECT_NAME":"STARLINK-4342","MEAN_MOTION_DDOT":"0.0000000000000","BSTAR":"0.00010958000000","COUNTRY_CODE":"US","FILE":"3679245","MEAN_MOTION_DOT":"0.00001349","TLE_LINE2":"2 53070  97.6554 155.1430 0001479  60.8177 299.3195 15.01260804 21864","REV_AT_EPOCH":"2186","MEAN_ELEMENT_THEORY":"SGP4","TLE_LINE1":"1 53070U 22077AD  22336.26356621  .00001349  00000-0  10958-3 0  9993","CENTER_NAME":"EARTH","RA_OF_ASC_NODE":"155.1430","PERIAPSIS":"561.983","OBJECT_ID":"2022-077AD","ARG_OF_PERICENTER":"60.8177","SITE":"AFWTR","INCLINATION":"97.6554","EPHEMERIS_TYPE":"0","PERIOD":"95.919"},{"APOAPSIS":"564.613","LAUNCH_DATE":"2022-07-11","DECAY_DATE":null,"EPOCH":"2022-12-02T18:56:42.165888","GP_ID":"219385089","MEAN_MOTION_DDOT":"0.0000000000000","OBJECT_NAME":"STARLINK-4328","BSTAR":"0.00006903700000","CLASSIFICATION_TYPE":"U","REF_FRAME":"TEME","ECCENTRICITY":"0.00023060","ELEMENT_SET_NO":"999","MEAN_MOTION":"15.01259683","OBJECT_TYPE":"PAYLOAD","TIME_SYSTEM":"UTC","NORAD_CAT_ID":"53071","RCS_SIZE":"LARGE","MEAN_ANOMALY":"314.0831","SEMIMAJOR_AXIS":"6941.148","RA_OF_ASC_NODE":"155.6748","OBJECT_ID":"2022-077AE","PERIAPSIS":"561.412","ARG_OF_PERICENTER":"46.0584","SITE":"AFWTR","INCLINATION":"97.6607","PERIOD":"95.919","EPHEMERIS_TYPE":"0","COUNTRY_CODE":"US","FILE":"3679625","MEAN_ELEMENT_THEORY":"SGP4","TLE_LINE2":"2 53071  97.6607 155.6748 0002306  46.0584 314.0831 15.01259683 21943","REV_AT_EPOCH":"2194","MEAN_MOTION_DOT":"0.00000828","TLE_LINE1":"1 53071U 22077AE  22336.78937692  .00000828  00000-0  69037-4 0  9998","CENTER_NAME":"EARTH"},{"FILE":"3679245","COUNTRY_CODE":"US","TLE_LINE1":"1 53072U 22077AF  22336.25985593  .00000248  00000-0  23875-4 0  9990","REV_AT_EPOCH":"2186","TLE_LINE2":"2 53072  97.6581 155.1434 0001873  69.4179 290.7246 15.01276863 21869","MEAN_MOTION_DOT":"0.00000248","MEAN_ELEMENT_THEORY":"SGP4","CENTER_NAME":"EARTH","PERIAPSIS":"561.660","OBJECT_ID":"2022-077AF","RA_OF_ASC_NODE":"155.1434","ARG_OF_PERICENTER":"69.4179","SITE":"AFWTR","INCLINATION":"97.6581","EPHEMERIS_TYPE":"0","PERIOD":"95.918","REF_FRAME":"TEME","CLASSIFICATION_TYPE":"U","OBJECT_TYPE":"PAYLOAD","MEAN_MOTION":"15.01276863","ELEMENT_SET_NO":"999","ECCENTRICITY":"0.00018730","RCS_SIZE":"LARGE","MEAN_ANOMALY":"290.7246","NORAD_CAT_ID":"53072","TIME_SYSTEM":"UTC","SEMIMAJOR_AXIS":"6941.095","GP_ID":"219353293","EPOCH":"2022-12-02T06:14:11.552352","DECAY_DATE":null,"LAUNCH_DATE":"2022-07-11","APOAPSIS":"564.260","OBJECT_NAME":"STARLINK-4344","MEAN_MOTION_DDOT":"0.0000000000000","BSTAR":"0.00002387500000"},{"INCLINATION":"97.6573","SITE":"AFWTR","PERIOD":"95.919","EPHEMERIS_TYPE":"0","PERIAPSIS":"561.373","OBJECT_ID":"2022-077AG","RA_OF_ASC_NODE":"155.6796","ARG_OF_PERICENTER":"45.0690","CENTER_NAME":"EARTH","FILE":"3679625","COUNTRY_CODE":"US","TLE_LINE1":"1 53073U 22077AG  22336.78566969  .00001668  00000-0  13439-3 0  9992","MEAN_ELEMENT_THEORY":"SGP4","TLE_LINE2":"2 53073  97.6573 155.6796 0002340  45.0690 315.0724 15.01264860 21940","MEAN_MOTION_DOT":"0.00001668","REV_AT_EPOCH":"2194","BSTAR":"0.00013439000000","EPOCH":"2022-12-02T18:51:21.861216","GP_ID":"219384350","APOAPSIS":"564.621","LAUNCH_DATE":"2022-07-11","DECAY_DATE":null,"OBJECT_NAME":"STARLINK-4346","MEAN_MOTION_DDOT":"0.0000000000000","RCS_SIZE":"LARGE","MEAN_ANOMALY":"315.0724","TIME_SYSTEM":"UTC","NORAD_CAT_ID":"53073","SEMIMAJOR_AXIS":"6941.132","REF_FRAME":"TEME","CLASSIFICATION_TYPE":"U","MEAN_MOTION":"15.01264860","OBJECT_TYPE":"PAYLOAD","ECCENTRICITY":"0.00023400","ELEMENT_SET_NO":"999"},{"MEAN_MOTION_DDOT":"0.0000000000000","OBJECT_NAME":"STARLINK-4310","GP_ID":"219384904","EPOCH":"2022-12-02T18:57:03.915360","DECAY_DATE":null,"LAUNCH_DATE":"2022-07-11","APOAPSIS":"564.494","BSTAR":"0.00010202000000","OBJECT_TYPE":"PAYLOAD","MEAN_MOTION":"15.01255512","ECCENTRICITY":"0.00021150","ELEMENT_SET_NO":"999","REF_FRAME":"TEME","CLASSIFICATION_TYPE":"U","SEMIMAJOR_AXIS":"6941.161","MEAN_ANOMALY":"316.6047","RCS_SIZE":"LARGE","NORAD_CAT_ID":"53074","TIME_SYSTEM":"UTC","ARG_OF_PERICENTER":"43.5343","OBJECT_ID":"2022-077AH","PERIAPSIS":"561.558","RA_OF_ASC_NODE":"155.6750","EPHEMERIS_TYPE":"0","PERIOD":"95.920","INCLINATION":"97.6594","SITE":"AFWTR","TLE_LINE1":"1 53074U 22077AH  22336.78962865  .00001251  00000-0  10202-3 0  9991","TLE_LINE2":"2 53074  97.6594 155.6750 0002115  43.5343 316.6047 15.01255512 21941","MEAN_MOTION_DOT":"0.00001251","REV_AT_EPOCH":"2194","MEAN_ELEMENT_THEORY":"SGP4","FILE":"3679625","COUNTRY_CODE":"US","CENTER_NAME":"EARTH"},{"SEMIMAJOR_AXIS":"6941.145","TIME_SYSTEM":"UTC","NORAD_CAT_ID":"53075","MEAN_ANOMALY":"339.0714","RCS_SIZE":"LARGE","ECCENTRICITY":"0.00026620","ELEMENT_SET_NO":"999","OBJECT_TYPE":"PAYLOAD","MEAN_MOTION":"15.01260527","REF_FRAME":"TEME","CLASSIFICATION_TYPE":"U","BSTAR":"0.00006455700000","OBJECT_NAME":"STARLINK-4348","MEAN_MOTION_DDOT":"0.0000000000000","APOAPSIS":"564.858","LAUNCH_DATE":"2022-07-11","DECAY_DATE":null,"EPOCH":"2022-12-02T18:46:23.376864","GP_ID":"219384720","CENTER_NAME":"EARTH","MEAN_ELEMENT_THEORY":"SGP4","MEAN_MOTION_DOT":"0.00000770","TLE_LINE2":"2 53075  97.6568 155.6848 0002662  21.0619 339.0714 15.01260527 21947","REV_AT_EPOCH":"2194","TLE_LINE1":"1 53075U 22077AJ  22336.78221501  .00000770  00000-0  64557-4 0  9995","COUNTRY_CODE":"US","FILE":"3679625","PERIOD":"95.919","EPHEMERIS_TYPE":"0","SITE":"AFWTR","INCLINATION":"97.6568","ARG_OF_PERICENTER":"21.0619","RA_OF_ASC_NODE":"155.6848","PERIAPSIS":"561.162","OBJECT_ID":"2022-077AJ"},{"SEMIMAJOR_AXIS":"6941.148","MEAN_ANOMALY":"300.7842","RCS_SIZE":"LARGE","TIME_SYSTEM":"UTC","NORAD_CAT_ID":"53076","OBJECT_TYPE":"PAYLOAD","MEAN_MOTION":"15.01259491","ECCENTRICITY":"0.00024400","ELEMENT_SET_NO":"999","CLASSIFICATION_TYPE":"U","REF_FRAME":"TEME","BSTAR":"0.00006870300000","OBJECT_NAME":"STARLINK-4347","MEAN_MOTION_DDOT":"0.0000000000000","EPOCH":"2022-12-02T18:54:02.181600","GP_ID":"219383797","LAUNCH_DATE":"2022-07-11","APOAPSIS":"564.707","DECAY_DATE":null,"CENTER_NAME":"EARTH","TLE_LINE1":"1 53076U 22077AK  22336.78752525  .00000823  00000-0  68703-4 0  9997","MEAN_ELEMENT_THEORY":"SGP4","MEAN_MOTION_DOT":"0.00000823","TLE_LINE2":"2 53076  97.6593 155.6782 0002440  59.3622 300.7842 15.01259491 21940","REV_AT_EPOCH":"2194","FILE":"3679625","COUNTRY_CODE":"US","PERIOD":"95.919","EPHEMERIS_TYPE":"0","INCLINATION":"97.6593","SITE":"AFWTR","ARG_OF_PERICENTER":"59.3622","OBJECT_ID":"2022-077AK","PERIAPSIS":"561.320","RA_OF_ASC_NODE":"155.6782"},{"OBJECT_TYPE":"PAYLOAD","MEAN_MOTION":"15.01264111","ECCENTRICITY":"0.00028260","ELEMENT_SET_NO":"999","REF_FRAME":"TEME","CLASSIFICATION_TYPE":"U","SEMIMAJOR_AXIS":"6941.134","RCS_SIZE":"LARGE","MEAN_ANOMALY":"338.7038","NORAD_CAT_ID":"53077","TIME_SYSTEM":"UTC","OBJECT_NAME":"STARLINK-4315","MEAN_MOTION_DDOT":"0.0000000000000","GP_ID":"219383981","EPOCH":"2022-12-02T18:43:22.331712","DECAY_DATE":null,"APOAPSIS":"564.961","LAUNCH_DATE":"2022-07-11","BSTAR":"0.00009272400000","TLE_LINE1":"1 53077U 22077AL  22336.78011958  .00001132  00000-0  92724-4 0  9990","TLE_LINE2":"2 53077  97.6562 155.6856 0002826  21.4304 338.7038 15.01264111 21947","REV_AT_EPOCH":"2194","MEAN_MOTION_DOT":"0.00001132","MEAN_ELEMENT_THEORY":"SGP4","FILE":"3679625","COUNTRY_CODE":"US","CENTER_NAME":"EARTH","ARG_OF_PERICENTER":"21.4304","OBJECT_ID":"2022-077AL","PERIAPSIS":"561.038","RA_OF_ASC_NODE":"155.6856","EPHEMERIS_TYPE":"0","PERIOD":"95.919","INCLINATION":"97.6562","SITE":"AFWTR"}];
